GLOBALSTAR M084 [+]     
1 38040U 11080A   23314.52475532 -.00000087  00000+0  91122-4 0  9995
2 38040  52.0029  28.3997 0000603 140.8122 232.8684 12.62267468548835
GLOBALSTAR M080 [+]     
1 38041U 11080B   23314.49835957 -.00000093  00000+0  57648-4 0  9995
2 38041  52.0084  29.8812 0000811 140.6042 233.1742 12.62265916548957
GLOBALSTAR M082 [+]     
1 38042U 11080C   23314.35278110 -.00000072  00000+0  17947-3 0  9997
2 38042  52.0096 345.7091 0000633  17.6187 355.4831 12.62267812549646
GLOBALSTAR M092 [+]     
1 38043U 11080D   23314.64296334 -.00000103  00000+0  34379-5 0  9993
2 38043  52.0087  75.1661 0000682 141.3177 231.8370 12.62262542548135
GLOBALSTAR M090 [+]     
1 38044U 11080E   23314.48902271 -.00000069  00000+0  19315-3 0  9992
2 38044  51.9903 339.8553 0000475  50.5354 102.8565 12.62263309549775
GLOBALSTAR M086 [+]     
1 38045U 11080F   23314.40586062 -.00000070  00000+0  19046-3 0  9994
2 38045  51.9916 340.6157 0001290  98.4962 275.7686 12.62264144549718
GLOBALSTAR M097 [+]     
1 39072U 13005A   23314.27085456 -.00000101  00000+0  17730-4 0  9994
2 39072  52.0048 254.9786 0000986  57.0935 303.0026 12.62272499496945
GLOBALSTAR M093 [+]     
1 39073U 13005B   23314.56110234 -.00000098  00000+0  31958-4 0  9993
2 39073  51.9811 248.3340 0001259  58.7045 301.3945 12.62268598496934
